NORAD_CAT_ID,OBJECT_NAME,OBJECT_TYPE,EPOCH,MEAN_MOTION,ECCENTRICITY,INCLINATION,RA_OF_ASC_NODE,ARG_OF_PERICENTER,MEAN_ANOMALY,BSTAR,MEAN_MOTION_DOT,MEAN_MOTION_DDOT,TLE_LINE0,TLE_LINE1,TLE_LINE2,SEMIMAJOR_AXIS,PERIOD,APOGEE,PERIGEE,DECAYED
53734.0,STARLINK-4616,PAYLOAD,2023-05-22 17:52:41,15.08843273,9.75e-05,53.2155,161.8799,102.7839,257.3262,-2.5451e-05,-6.93e-06,0.0,0 STARLINK-4616,1 53734U 22107AL  23142.74492901 -.00000693  00000-0 -25451-4 0  9993,2 53734  53.2155 161.8799 0000975 102.7839 257.3262 15.08843273 40302,6917.87,95.437,540.41,539.061,0.0
53734.0,STARLINK-4616,PAYLOAD,2023-05-23 17:43:29,15.08836871,0.000101,53.2156,157.4192,90.3133,269.7975,0.00010063,1.314e-05,0.0,0 STARLINK-4616,1 53734U 22107AL  23143.73853279  .00001314  00000-0  10063-3 0  9993,2 53734  53.2156 157.4192 0001010  90.3133 269.7975 15.08836871 39820,6917.89,95.438,540.454,539.056,0.0
53734.0,STARLINK-4616,PAYLOAD,2023-05-24 09:37:20,15.08840448,0.0001017,53.2156,154.4454,89.5232,270.5877,5.5433e-05,5.95e-06,0.0,0 STARLINK-4616,1 53734U 22107AL  23144.40093297  .00000595  00000-0  55433-4 0  9995,2 53734  53.2156 154.4454 0001017  89.5232 270.5877 15.08840448 40553,6917.879,95.438,540.448,539.04,0.0
53734.0,STARLINK-4616,PAYLOAD,2023-05-26 04:32:45,15.08838459,0.0001094,53.2159,146.4152,83.4043,276.7074,3.6634e-05,2.95e-06,0.0,0 STARLINK-4616,1 53734U 22107AL  23146.18941532  .00000295  00000-0  36634-4 0  9995,2 53734  53.2159 146.4152 0001094  83.4043 276.7074 15.08838459 40196,6917.885,95.438,540.507,538.993,0.0
53734.0,STARLINK-4616,PAYLOAD,2023-05-26 09:18:54,15.08839249,0.0001077,53.2157,145.5226,83.7776,276.3339,3.5746e-05,2.81e-06,0.0,0 STARLINK-4616,1 53734U 22107AL  23146.38813479  .00000281  00000-0  35746-4 0  9993,2 53734  53.2157 145.5226 0001077  83.7776 276.3339 15.08839249 40854,6917.883,95.438,540.493,539.003,0.0
53734.0,STARLINK-4616,PAYLOAD,2023-05-27 09:09:41,15.08841531,0.0001014,53.2155,141.0625,88.6873,271.4235,6.7311e-05,7.84e-06,0.0,0 STARLINK-4616,1 53734U 22107AL  23147.38173152  .00000784  00000-0  67311-4 0  9992,2 53734  53.2155 141.0625 0001014  88.6873 271.4235 15.08841531 40374,6917.876,95.437,540.442,539.039,0.0
53734.0,STARLINK-4616,PAYLOAD,2023-05-27 17:06:37,15.08840972,0.0001005,53.2154,139.5759,89.1138,270.9969,5.754e-05,6.28e-06,0.0,0 STARLINK-4616,1 53734U 22107AL  23147.71293186  .00000628  00000-0  57540-4 0  9999,2 53734  53.2154 139.5759 0001005  89.1138 270.9969 15.08840972 41055,6917.877,95.437,540.438,539.047,0.0
53734.0,STARLINK-4616,PAYLOAD,2023-05-28 05:49:42,15.08841403,0.0001045,53.2157,137.1971,91.3328,268.7784,4.1973e-05,3.8e-06,0.0,0 STARLINK-4616,1 53734U 22107AL  23148.24285216  .00000380  00000-0  41973-4 0  9991,2 53734  53.2157 137.1971 0001045  91.3328 268.7784 15.08841403 41137,6917.876,95.437,540.464,539.018,0.0
53734.0,STARLINK-4616,PAYLOAD,2023-05-29 04:05:06,15.08840473,0.0001102,53.2155,133.0344,89.9665,270.1453,1.8739e-05,1e-07,0.0,0 STARLINK-4616,1 53734U 22107AL  23149.17021298  .00000010  00000-0  18739-4 0  9996,2 53734  53.2155 133.0344 0001102  89.9665 270.1453 15.08840473 40646,6917.879,95.438,540.506,538.982,0.0
53734.0,STARLINK-4616,PAYLOAD,2023-05-29 05:40:29,15.08840773,0.0001094,53.2155,132.7373,88.9256,271.1861,1.8784e-05,1.1e-07,0.0,0 STARLINK-4616,1 53734U 22107AL  23149.23645276  .00000011  00000-0  18784-4 0  9992,2 53734  53.2155 132.7373 0001094  88.9256 271.1861 15.08840773 41287,6917.878,95.438,540.5,538.986,0.0
53734.0,STARLINK-4616,PAYLOAD,2023-05-30 05:31:16,15.08838085,0.0001093,53.2157,128.277,88.1404,271.9713,1.0381e-05,-1.23e-06,0.0,0 STARLINK-4616,1 53734U 22107AL  23150.23005566 -.00000123  00000-0  10381-4 0  9996,2 53734  53.2157 128.2770 0001093  88.1404 271.9713 15.08838085 40800,6917.886,95.438,540.507,538.995,0.0
53734.0,STARLINK-4616,PAYLOAD,2023-05-31 06:57:27,15.08828878,0.0001086,53.2157,123.5228,101.8327,258.2787,-3.5465e-05,-8.52e-06,0.0,0 STARLINK-4616,1 53734U 22107AL  23151.28990515 -.00000852  00000-0 -35465-4 0  9999,2 53734  53.2157 123.5228 0001086 101.8327 258.2787 15.08828878 40960,6917.914,95.438,540.531,539.028,0.0
53734.0,STARLINK-4616,PAYLOAD,2023-05-31 14:54:24,15.08821768,9.8e-05,53.2157,122.0326,88.9861,271.1243,-7.3562e-05,-1.458e-05,0.0,0 STARLINK-4616,1 53734U 22107AL  23151.62111338 -.00001458  00000-0 -73562-4 0  9998,2 53734  53.2157 122.0326 0000980  88.9861 271.1243 15.08821768 41012,6917.936,95.439,540.479,539.123,0.0
53734.0,STARLINK-4616,PAYLOAD,2023-06-01 05:12:52,15.08829068,9.74e-05,53.2158,119.3568,92.7955,267.3149,-7.6544e-06,-4.09e-06,0.0,0 STARLINK-4616,1 53734U 22107AL  23152.21727221 -.00000409  00000-0 -76544-5 0  9997,2 53734  53.2158 119.3568 0000974  92.7955 267.3149 15.08829068 41732,6917.914,95.438,540.453,539.105,0.0
53734.0,STARLINK-4616,PAYLOAD,2023-06-02 06:39:01,15.08850505,9.91e-05,53.2155,114.5994,96.5663,263.5442,0.00010276,1.348e-05,0.0,0 STARLINK-4616,1 53734U 22107AL  23153.27709832  .00001348  00000-0  10276-3 0  9991,2 53734  53.2155 114.5994 0000991  96.5663 263.5442 15.08850505 41268,6917.848,95.437,540.399,539.028,0.0
53734.0,STARLINK-4616,PAYLOAD,2023-06-03 03:19:02,15.08839484,0.0001101,53.2166,110.7287,106.1348,253.9766,9.0651e-05,1.155e-05,0.0,0 STARLINK-4616,1 53734U 22107AL  23154.13822862  .00001155  00000-0  90651-4 0  9998,2 53734  53.2166 110.7287 0001101 106.1348 253.9766 15.08839484 41394,6917.882,95.438,540.509,538.985,0.0
53734.0,STARLINK-4616,PAYLOAD,2023-06-03 04:54:26,15.08839766,0.0001045,53.2168,110.432,101.3823,258.7286,0.00011716,1.577e-05,0.0,0 STARLINK-4616,1 53734U 22107AL  23154.20446812  .00001577  00000-0  11716-3 0  9995,2 53734  53.2168 110.4320 0001045 101.3823 258.7286 15.08839766 42038,6917.881,95.438,540.469,539.023,0.0
53734.0,STARLINK-4616,PAYLOAD,2023-06-03 20:48:17,15.08847074,0.0001107,53.2168,107.459,99.936,260.1757,2.1057e-05,4.7e-07,0.0,0 STARLINK-4616,1 53734U 22107AL  23154.86686527  .00000047  00000-0  21057-4 0  9997,2 53734  53.2168 107.4590 0001107  99.9360 260.1757 15.08847074 42132,6917.859,95.437,540.49,538.958,0.0
53734.0,STARLINK-4616,PAYLOAD,2023-06-04 03:09:49,15.08850575,0.0001101,53.2166,106.2711,94.4761,265.6357,4.282e-05,3.94e-06,0.0,0 STARLINK-4616,1 53734U 22107AL  23155.13182091  .00000394  00000-0  42820-4 0  9991,2 53734  53.2166 106.2711 0001101  94.4761 265.6357 15.08850575 41541,6917.848,95.437,540.475,538.951,0.0
53734.0,STARLINK-4616,PAYLOAD,2023-06-04 14:17:31,15.08841258,0.0001065,53.2165,104.1905,95.1252,264.9861,0.00012866,1.76e-05,0.0,0 STARLINK-4616,1 53734U 22107AL  23155.59550256  .00001760  00000-0  12866-3 0  9997,2 53734  53.2165 104.1905 0001065  95.1252 264.9861 15.08841258 42242,6917.877,95.437,540.478,539.005,0.0
53734.0,STARLINK-4616,PAYLOAD,2023-06-05 06:11:22,15.08846565,0.0001181,53.217,101.2163,98.2182,261.8944,6.7224e-05,7.82e-06,0.0,0 STARLINK-4616,1 53734U 22107AL  23156.25789832  .00000782  00000-0  67224-4 0  9997,2 53734  53.2170 101.2163 0001181  98.2182 261.8944 15.08846565 42342,6917.86,95.437,540.542,538.908,0.0
53734.0,STARLINK-4616,PAYLOAD,2023-06-05 20:29:51,15.0883937,0.0001023,53.2162,98.5389,95.2471,264.8638,-5.0973e-05,-1.099e-05,0.0,0 STARLINK-4616,1 53734U 22107AL  23156.85406648 -.00001099  00000-0 -50973-4 0  9991,2 53734  53.2162  98.5389 0001023  95.2471 264.8638 15.08839370 42433,6917.882,95.438,540.455,539.04,0.0
53734.0,STARLINK-4616,PAYLOAD,2023-06-05 23:40:37,15.08838845,0.0001005,53.2165,97.9441,98.4627,261.6479,-5.937e-05,-1.232e-05,0.0,0 STARLINK-4616,1 53734U 22107AL  23156.98654686 -.00001232  00000-0 -59370-4 0  9991,2 53734  53.2165  97.9441 0001005  98.4627 261.6479 15.08838845 41822,6917.884,95.438,540.444,539.054,0.0
53734.0,STARLINK-4616,PAYLOAD,2023-06-06 06:02:10,15.08843023,0.0001347,53.2169,96.7546,108.2663,251.8476,-8.3607e-05,-1.618e-05,0.0,0 STARLINK-4616,1 53734U 22107AL  23157.25150464 -.00001618  00000-0 -83607-4 0  9995,2 53734  53.2169  96.7546 0001347 108.2663 251.8476 15.08843023 42494,6917.871,95.437,540.668,538.804,0.0
53734.0,STARLINK-4616,PAYLOAD,2023-06-06 18:45:15,15.08834717,0.0001055,53.2166,94.3778,89.5082,270.6031,8.9633e-06,-1.45e-06,0.0,0 STARLINK-4616,1 53734U 22107AL  23157.78142834 -.00000145  00000-0  89633-5 0  9994,2 53734  53.2166  94.3778 0001055  89.5082 270.6031 15.08834717 42579,6917.897,95.438,540.491,539.032,0.0
53734.0,STARLINK-4616,PAYLOAD,2023-06-07 05:52:56,15.08844225,0.0001116,53.2166,92.2959,89.0433,271.0687,5.3771e-05,5.68e-06,0.0,0 STARLINK-4616,1 53734U 22107AL  23158.24510172  .00000568  00000-0  53771-4 0  9991,2 53734  53.2166  92.2959 0001116  89.0433 271.0687 15.08844225 42016,6917.867,95.437,540.505,538.96,0.0
53734.0,STARLINK-4616,PAYLOAD,2023-06-08 00:57:35,15.08829921,0.0001115,53.2173,88.7264,83.8004,276.3115,1.6553e-05,-2.4e-07,0.0,0 STARLINK-4616,1 53734U 22107AL  23159.03999518 -.00000024  00000-0  16553-4 0  9999,2 53734  53.2173  88.7264 0001115  83.8004 276.3115 15.08829921 42131,6917.911,95.438,540.548,539.005,0.0
53734.0,STARLINK-4616,PAYLOAD,2023-06-08 23:12:58,15.08844565,9.87e-05,53.2167,84.5639,95.3494,264.7611,6.8131e-05,7.97e-06,0.0,0 STARLINK-4616,1 53734U 22107AL  23159.96734651  .00000797  00000-0  68131-4 0  9991,2 53734  53.2167  84.5639 0000987  95.3494 264.7611 15.08844565 42279,6917.866,95.437,540.414,539.049,0.0
53734.0,STARLINK-4616,PAYLOAD,2023-06-09 11:56:04,15.08838398,0.0001296,53.2178,82.1841,78.3523,281.7614,2.4914e-05,1.09e-06,0.0,0 STARLINK-4616,1 53734U 22107AL  23160.49727245  .00000109  00000-0  24914-4 0  9990,2 53734  53.2178  82.1841 0001296  78.3523 281.7614 15.08838398 42985,6917.885,95.438,540.647,538.854,0.0
53734.0,STARLINK-4616,PAYLOAD,2023-06-10 11:46:51,15.08835909,0.000125,53.2172,77.7256,80.7443,279.3691,4.3681e-05,4.07e-06,0.0,0 STARLINK-4616,1 53734U 22107AL  23161.49087695  .00000407  00000-0  43681-4 0  9992,2 53734  53.2172  77.7256 0001250  80.7443 279.3691 15.08835909 43138,6917.893,95.438,540.623,538.893,0.0
